CELESTIS-17 & SHERPA-FX1
1 47486U 21006CB  26068.64311433  .00007207  00000+0  24301-3 0  9993
2 47486  97.2397 112.1052 0006630 178.1385 181.9882 15.30994801284065
STARLINK-34687          
1 64909U 25157F   26068.17375094  .00008728  00000+0  30651-3 0  9998
2 64909  53.1608 348.1452 0001068  88.0554 272.0569 15.30195600 35992
